{
  "norad_id": 68696,
  "name": "JILIN GAOFEN OBJECT F",
  "history": [
    {
      "epoch": "2026-04-14T13:03:15.829344Z",
      "apogee_km": 547.934709162897,
      "perigee_km": 527.9472438108505,
      "latitude_deg": 1.991103472049477e-05,
      "longitude_deg": 141.64990386290827,
      "height_km": 538.479011290192,
      "semi_major_axis_km": 6916.077976486874,
      "eccentricity": 0.001445,
      "inclination_deg": 97.6602,
      "raan_deg": 180.1847,
      "arg_perigee_deg": 284.7073,
      "mean_anomaly_deg": 75.2554,
      "mean_motion_rev_day": 15.09429871
    }
  ]
}