JILIN GAOFEN OBJECT F
1 68696U 26080F   26104.54393321  .00001584  00000+0  10292-3 0  9998
2 68696  97.6602 180.1847 0014450 284.7073  75.2554 15.09429871    27
